BRAC ONNESHA            
1 42823U 98067MX  18103.87686346  .00021953  00000-0  22493-3 0  9993
2 42823  51.6371 327.7838 0004329 301.7702  58.2871 15.64891613 43776
NIGERIAEDUSAT-1         
1 42824U 98067MY  18103.82993952  .00023868  00000-0  24549-3 0  9994
2 42824  51.6376 328.2329 0004223 301.7492  58.3092 15.64738703 43734
CORVUS BC2              
1 42846U 17042X   18103.68081103  .00000392  00000-0  44209-4 0  9995
2 42846  97.6024   8.8648 0010964  56.3552 303.8711 14.91788394 40757
CORVUS BC1              
1 42847U 17042Y   18104.19932043  .00000273  00000-0  32291-4 0  9997
2 42847  97.6025   9.4048 0010616  54.8425 305.3787 14.91887577 40827
SILU-1 (SILKROAD 1)     
1 42903U 17021F   18103.99437500  .00028688  00000-0  24507-3 0  9992
2 42903  42.7803 356.2688 0011614 217.4319 336.1626 15.68822830 39835
MIRATA                  
1 43015U 17073C   18103.77608934  .00001257  00000-0  10390-3 0  9999
2 43015  97.7013  37.5218 0260015 121.0202 241.6824 14.77932669 21622
ASTERIA                 
1 43020U 98067NH  18104.02680931  .00013850  00000-0  18869-3 0  9994
2 43020  51.6417 336.3282 0001753 289.8299  70.2504 15.57833485 22488
DELLINGR (RBLE)         
1 43021U 98067NJ  18103.95204059  .00007462  00000-0  10940-3 0  9993
2 43021  51.6404 337.3201 0001562 281.8472  78.2344 15.56654215 22469
TECHEDSAT 6             
1 43026U 98067NK  18104.20959951  .00224075  00000-0  12055-2 0  9994
2 43026  51.6298 326.9735 0005690 241.2431 118.7999 15.78998475 22528
OSIRIS-3U               
1 43027U 98067NL  18104.13839600  .00029496  00000-0  34912-3 0  9992
2 43027  51.6389 334.0618 0002691 249.4696 110.6009 15.61004120 22408
AEROCUBE 7B             
1 43042U 17071F   18103.95083930  .00004170  00000-0  11839-3 0  9996
2 43042  51.6403 354.3679 0005783  38.7626 321.3772 15.38459856 19713
AEROCUBE 7C             
1 43043U 17071G   18103.95028023  .00003850  00000-0  11021-3 0  9996
2 43043  51.6406 354.3667 0005663  40.3390 319.8013 15.38426942 19684
CHEFSAT                 
1 43044U 17071H   18103.92583395  .00006964  00000-0  18728-3 0  9992
2 43044  51.6406 354.2118 0005699  38.9005 321.2388 15.39025753 19688
ASGARDIA 1              
1 43049U 17071N   18103.93676694  .00003317  00000-0  95954-4 0  9999
2 43049  51.6407 354.2802 0003256  61.5194 298.6117 15.38571083 19680
ISARA                   
1 43050U 17071P   18103.92286274  .00005358  00000-0  14682-3 0  9996
2 43050  51.6405 354.1934 0003216  59.7703 300.3599 15.38952962 19680
FAUNA                   
1 43052U 17071R   18103.93032486  .00003499  00000-0  10030-3 0  9990
2 43052  51.6408 354.2425 0003165  59.1723 300.9572 15.38678275 19678
CORVUS BC3              
1 43118U 18004H   18103.78561903  .00001067  00000-0  49665-4 0  9990
2 43118  97.5397 166.2290 0009654 327.9388  32.1260 15.22125505 13915
MICROMAS-2A             
1 43131U 18004W   18103.70067488  .00002532  00000-0  11217-3 0  9995
2 43131  97.5405 166.1946 0008849 332.3658  27.7107 15.22544687 13907
GOMX4-B                 
1 43196U 18015E   18103.97563758  .00000685  00000-0  31552-4 0  9990
2 43196  97.3356 234.2763 0020762  28.4086 331.8276 15.23461291 10757
GOMX4-A                 
1 43197U 18015F   18104.05805337  .00000651  00000-0  29997-4 0  9996
2 43197  97.3361 234.3542 0020600  28.5188  59.4188 15.23586273 10770
